{"fetched_at":"2026-04-03T08:55:45Z","count":9961,"tles":[{"name":"RASSVET-3 9","line1":"1 68368U 26061J   26090.65698166  .00117868  36680-5  40633-3 0  9998","line2":"2 68368  82.2968  99.7106 0026602  44.7263 315.6146 15.88838410  1263","category":"Other"}]}